{
    "links": {
        "self": "http://www.neowsapp.com/rest/v1/neo/3799424?api_key=iIulBulltgU6a56xZRHN4H3l9WmuAYTsLGpBGhQ2"
    },
    "id": "3799424",
    "neo_reference_id": "3799424",
    "name": "(2018 CS3)",
    "designation": "2018 CS3",
    "nasa_jpl_url": "http://ssd.jpl.nasa.gov/sbdb.cgi?sstr=3799424",
    "absolute_magnitude_h": 24.7,
    "estimated_diameter": {
        "kilometers": {
            "estimated_diameter_min": 0.0305179233,
            "estimated_diameter_max": 0.0682401509
        },
        "meters": {
            "estimated_diameter_min": 30.5179232594,
            "estimated_diameter_max": 68.2401509401
        },
        "miles": {
            "estimated_diameter_min": 0.0189629525,
            "estimated_diameter_max": 0.0424024508
        },
        "feet": {
            "estimated_diameter_min": 100.1244233463,
            "estimated_diameter_max": 223.8850168104
        }
    },
    "is_potentially_hazardous_asteroid": false,
    "close_approach_data": [
        {
            "close_approach_date": "2018-01-18",
            "close_approach_date_full": "2018-Jan-18 05:01",
            "epoch_date_close_approach": 1516251660000,
            "relative_velocity": {
                "kilometers_per_second": "4.3909041956",
                "kilometers_per_hour": "15807.255104004",
                "miles_per_hour": "9822.0135950407"
            },
            "miss_distance": {
                "astronomical": "0.1564224414",
                "lunar": "60.8483297046",
                "kilometers": "23400464.053639818",
                "miles": "14540374.1168247684"
            },
            "orbiting_body": "Earth"
        }
    ],
    "orbital_data": {
        "orbit_id": "2",
        "orbit_determination_date": "2018-02-17 06:20:29",
        "first_observation_date": "2018-02-11",
        "last_observation_date": "2018-02-16",
        "data_arc_in_days": 5,
        "observations_used": 16,
        "orbit_uncertainty": "9",
        "minimum_orbit_intersection": ".149633",
        "jupiter_tisserand_invariant": "3.852",
        "epoch_osculation": "2458161.5",
        "eccentricity": ".4142811544222748",
        "semi_major_axis": "1.881905655766833",
        "inclination": "6.941552754026415",
        "ascending_node_longitude": "159.6803115901726",
        "orbital_period": "942.9641851698553",
        "perihelion_distance": "1.102267608181941",
        "perihelion_argument": "307.7145958678979",
        "aphelion_distance": "2.661543703351724",
        "perihelion_time": "2458124.139673789124",
        "mean_anomaly": "14.26323252509603",
        "mean_motion": ".3817748390254647",
        "equinox": "J2000",
        "orbit_class": {
            "orbit_class_type": "AMO",
            "orbit_class_description": "Near-Earth asteroid orbits similar to that of 1221 Amor",
            "orbit_class_range": "1.017 AU < q (perihelion) < 1.3 AU"
        }
    },
    "is_sentry_object": false
}